QIANFAN-25              
1 61558U 24185G   25235.90041096  .00000363  00000+0  21428-3 0  9992
2 61558  88.9751  90.7506 0005495 296.0584  64.0032 14.05765529 53938
QIANFAN-26              
1 61559U 24185H   25235.92199806  .00000122  00000+0  10936-3 0  9993
2 61559  88.9766  91.7276 0005906   7.2324 352.8926 13.77727929 53414
QIANFAN-27              
1 61560U 24185J   25235.90346458  .00000403  00000+0  15922-3 0  9992
2 61560  88.9758  89.9550 0006244 304.1601  55.9001 14.27138773 54352
QIANFAN-28              
1 61561U 24185K   25235.93476022  .00000537  00000+0  21201-3 0  9992
2 61561  88.9774  89.9464 0005274 306.8147  53.2563 14.27711007 54363
QIANFAN-29              
1 61562U 24185L   25235.93899393  .00000156  00000+0  22259-3 0  9994
2 61562  88.9760  92.7771 0010960  21.6019 338.5593 13.50962070 52835
QIANFAN-30              
1 61563U 24185M   25235.90409788  .00000135  00000+0  19369-3 0  9992
2 61563  88.9764  92.2623 0007955  10.6147 349.5170 13.49935148 53110
QIANFAN-31              
1 61564U 24185N   25235.93338660  .00000137  00000+0  17294-3 0  9993
2 61564  88.9749  92.2368 0007586   9.3803 350.7492 13.57908988 53127
QIANFAN-32              
1 61565U 24185P   25235.93405080  .00000157  00000+0  22497-3 0  9998
2 61565  88.9808  92.3599 0010540  31.1109 329.0664 13.50688128 53086
